{
  "type": "FeatureCollection",
  "features": [
    {
      "type": "Feature",
      "properties": {
        "name": "Urbanización Los Ángeles de San Rafael",
        "municipio": "El Espinar",
        "provincia": "Segovia"
      },
      "geometry": {
        "type": "Polygon",
        "coordinates": [
          [
            [-4.225054052665769, 40.785848434073074],
            [-4.227209618716586, 40.78686145435415],
            [-4.234679770035115, 40.78733981967105],
            [-4.239659870913215, 40.77931971047991],
            [-4.2399200254356515, 40.77605510802985],
            [-4.234345285646896, 40.77490120154857],
            [-4.231595080684087, 40.77411315633694],
            [-4.231037606705598, 40.772368165818506],
            [-4.231818070275722, 40.76921580870945],
            [-4.226912299262011, 40.76893434098088],
            [-4.226949464194206, 40.767836605446234],
            [-4.221449054268419, 40.766232190123645],
            [-4.209630605914583, 40.77169267331405],
            [-4.20647158670198, 40.773859854105126],
            [-4.210931378532422, 40.78219017662735],
            [-4.221820703587355, 40.785820294400054],
            [-4.225054052665769, 40.785848434073074]
          ]
        ]
      }
    }
  ]
}
